{
  "type": "FeatureCollection",
  "features": [
    {
      "type": "Feature",
      "properties": {
        "norad_id": 54741,
        "name": "GALAXY 35 (G-35)",
        "group": "intelsat",
        "lat": -0.013395673676122714,
        "lon": -21.566830943257113,
        "alt_km": 35783.248860581254,
        "timestamp": "2025-12-08T23:34:03.637832+00:00",
        "meta_object_name": "GALAXY 35 (G-35)",
        "meta_object_id": "2022-170A",
        "meta_epoch": "2025-12-08T12:28:10.909344",
        "meta_mean_motion": 1.00271051,
        "meta_eccentricity": 0.00026798,
        "meta_inclination": 0.0182,
        "meta_ra_of_asc_node": 72.839,
        "meta_arg_of_pericenter": 191.2736,
        "meta_mean_anomaly": 267.3706,
        "meta_ephemeris_type": 0,
        "meta_classification_type": "U",
        "meta_norad_cat_id": 54741,
        "meta_element_set_no": 999,
        "meta_rev_at_epoch": 1098,
        "meta_bstar": 0,
        "meta_mean_motion_dot": -1.6e-06,
        "meta_mean_motion_ddot": 0,
        "tle_line1": "1 54741U 22170A   25342.51957071 -.00000160  00000+0  00000+0 0  9990",
        "tle_line2": "2 54741   0.0182  72.8390 0002679 191.2736 267.3706  1.00271051 10982"
      },
      "geometry": {
        "type": "Point",
        "coordinates": [
          -21.566830943257113,
          -0.013395673676122714
        ]
      }
    },
    {
      "type": "Feature",
      "properties": {
        "norad_id": 54742,
        "name": "GALAXY 36 (G-36)",
        "group": "intelsat",
        "lat": -0.008502222589137477,
        "lon": -17.506358609681108,
        "alt_km": 35785.0801320388,
        "timestamp": "2025-12-08T23:34:03.637844+00:00",
        "meta_object_name": "GALAXY 36 (G-36)",
        "meta_object_id": "2022-170B",
        "meta_epoch": "2025-12-08T12:29:48.274368",
        "meta_mean_motion": 1.00270893,
        "meta_eccentricity": 5.86e-05,
        "meta_inclination": 0.009,
        "meta_ra_of_asc_node": 15.022,
        "meta_arg_of_pericenter": 268.7828,
        "meta_mean_anomaly": 252.1699,
        "meta_ephemeris_type": 0,
        "meta_classification_type": "U",
        "meta_norad_cat_id": 54742,
        "meta_element_set_no": 999,
        "meta_rev_at_epoch": 1086,
        "meta_bstar": 0,
        "meta_mean_motion_dot": -1.83e-06,
        "meta_mean_motion_ddot": 0,
        "tle_line1": "1 54742U 22170B   25342.52069762 -.00000183  00000+0  00000+0 0  9998",
        "tle_line2": "2 54742   0.0090  15.0220 0000586 268.7828 252.1699  1.00270893 10862"
      },
      "geometry": {
        "type": "Point",
        "coordinates": [
          -17.506358609681108,
          -0.008502222589137477
        ]
      }
    },
    {
      "type": "Feature",
      "properties": {
        "norad_id": 57493,
        "name": "GALAXY 37 (G-37)",
        "group": "intelsat",
        "lat": -0.014197608507560683,
        "lon": -55.488166836177726,
        "alt_km": 35778.714066596054,
        "timestamp": "2025-12-08T23:34:03.637856+00:00",
        "meta_object_name": "GALAXY 37 (G-37)",
        "meta_object_id": "2023-112A",
        "meta_epoch": "2025-12-08T12:05:59.143200",
        "meta_mean_motion": 1.00271243,
        "meta_eccentricity": 0.00023707,
        "meta_inclination": 0.0102,
        "meta_ra_of_asc_node": 325.4771,
        "meta_arg_of_pericenter": 297.2918,
        "meta_mean_anomaly": 229.2399,
        "meta_ephemeris_type": 0,
        "meta_classification_type": "U",
        "meta_norad_cat_id": 57493,
        "meta_element_set_no": 999,
        "meta_rev_at_epoch": 863,
        "meta_bstar": 0,
        "meta_mean_motion_dot": 5e-07,
        "meta_mean_motion_ddot": 0,
        "tle_line1": "1 57493U 23112A   25342.50415675  .00000050  00000+0  00000+0 0  9999",
        "tle_line2": "2 57493   0.0102 325.4771 0002370 297.2918 229.2399  1.00271243  8635"
      },
      "geometry": {
        "type": "Point",
        "coordinates": [
          -55.488166836177726,
          -0.014197608507560683
        ]
      }
    }
  ]
}